{"type": "FeatureCollection", "features": [ {"type": "Feature", "properties": {"norad_id": 57401, "name": "TIANMU-1 09", "group": "weather", "lat": 79.0548631818779, "lon": 5.994605517063814, "alt_km": 469.9956458556371, "timestamp": "2025-12-24T11:32:59.645881+00:00", "meta": {"OBJECT_NAME": "TIANMU-1 09", "OBJECT_ID": "2023-101C", "EPOCH": "2025-12-24T04:54:28.507104", "MEAN_MOTION": 15.28247013, "ECCENTRICITY": 0.000627, "INCLINATION": 97.2801, "RA_OF_ASC_NODE": 47.1047, "ARG_OF_PERICENTER": 52.4618, "MEAN_ANOMALY": 307.7191, "EPHEMERIS_TYPE": 0, "CLASSIFICATION_TYPE": "U", "NORAD_CAT_ID": 57401, "ELEMENT_SET_NO": 999, "REV_AT_EPOCH": 13490, "BSTAR": 0.0003006, "MEAN_MOTION_DOT": 8.206e-05, "MEAN_MOTION_DDOT": 0}, "tle": {"line1": "1 57401U 23101C   25358.20449661  .00008206  00000+0  30060-3 0  9996", "line2": "2 57401  97.2801  47.1047 0006270  52.4618 307.7191 15.28247013134908"}}, "geometry": {"type": "Point", "coordinates": [5.994605517063814, 79.0548631818779]}}, {"type": "Feature", "properties": {"norad_id": 57402, "name": "TIANMU-1 10", "group": "weather", "lat": -71.8737947514996, "lon": -154.77678973088885, "alt_km": 493.38741902038873, "timestamp": "2025-12-24T11:32:59.645895+00:00", "meta": {"OBJECT_NAME": "TIANMU-1 10", "OBJECT_ID": "2023-101D", "EPOCH": "2025-12-24T04:09:32.439168", "MEAN_MOTION": 15.2823776, "ECCENTRICITY": 0.0008005, "INCLINATION": 97.2882, "RA_OF_ASC_NODE": 47.9362, "ARG_OF_PERICENTER": 49.9839, "MEAN_ANOMALY": 310.2102, "EPHEMERIS_TYPE": 0, "CLASSIFICATION_TYPE": "U", "NORAD_CAT_ID": 57402, "ELEMENT_SET_NO": 999, "REV_AT_EPOCH": 13489, "BSTAR": 0.00030539, "MEAN_MOTION_DOT": 8.338e-05, "MEAN_MOTION_DDOT": 0}, "tle": {"line1": "1 57402U 23101D   25358.17329212  .00008338  00000+0  30539-3 0  9999", "line2": "2 57402  97.2882  47.9362 0008005  49.9839 310.2102 15.28237760134897"}}, "geometry": {"type": "Point", "coordinates": [-154.77678973088885, -71.8737947514996]}}, {"type": "Feature", "properties": {"norad_id": 57490, "name": "FENGYUN 3F", "group": "weather", "lat": -79.76849490042851, "lon": -171.51831637160117, "alt_km": 833.530935482855, "timestamp": "2025-12-24T11:32:59.645905+00:00", "meta": {"OBJECT_NAME": "FENGYUN 3F", "OBJECT_ID": "2023-111A", "EPOCH": "2025-12-24T05:14:01.717152", "MEAN_MOTION": 14.19896473, "ECCENTRICITY": 8.18e-05, "INCLINATION": 98.7068, "RA_OF_ASC_NODE": 66.3255, "ARG_OF_PERICENTER": 116.6239, "MEAN_ANOMALY": 243.5021, "EPHEMERIS_TYPE": 0, "CLASSIFICATION_TYPE": "U", "NORAD_CAT_ID": 57490, "ELEMENT_SET_NO": 999, "REV_AT_EPOCH": 12403, "BSTAR": 5.8656e-05, "MEAN_MOTION_DOT": 8.1e-07, "MEAN_MOTION_DDOT": 0}, "tle": {"line1": "1 57490U 23111A   25358.21807543  .00000081  00000+0  58656-4 0  9998", "line2": "2 57490  98.7068  66.3255 0000818 116.6239 243.5021 14.19896473124036"}}, "geometry": {"type": "Point", "coordinates": [-171.51831637160117, -79.76849490042851]}}, {"type": "Feature", "properties": {"norad_id": 58584, "name": "ARKTIKA-M 2", "group": "weather", "lat": 61.96984601829716, "lon": -114.82363094191523, "alt_km": 37758.91361821321, "timestamp": "2025-12-24T11:32:59.645921+00:00", "meta": {"OBJECT_NAME": "ARKTIKA-M 2", "OBJECT_ID": "2023-198A", "EPOCH": "2025-12-23T19:04:51.780000", "MEAN_MOTION": 2.00602438, "ECCENTRICITY": 0.68658211, "INCLINATION": 63.2256, "RA_OF_ASC_NODE": 173.6885, "ARG_OF_PERICENTER": 268.0594, "MEAN_ANOMALY": 18.8414, "EPHEMERIS_TYPE": 0, "CLASSIFICATION_TYPE": "U", "NORAD_CAT_ID": 58584, "ELEMENT_SET_NO": 999, "REV_AT_EPOCH": 1480, "BSTAR": 0, "MEAN_MOTION_DOT": 2.16e-06, "MEAN_MOTION_DDOT": 0}, "tle": {"line1": "1 58584U 23198A   25357.79504375  .00000216  00000+0  00000+0 0  9992", "line2": "2 58584  63.2256 173.6885 6865821 268.0594  18.8414  2.00602438 14808"}}, "geometry": {"type": "Point", "coordinates": [-114.82363094191523, 61.96984601829716]}}, {"type": "Feature", "properties": {"norad_id": 58645, "name": "TIANMU-1 11", "group": "weather", "lat": -73.12977686530596, "lon": 43.124981419760765, "alt_km": 494.20642707913976, "timestamp": "2025-12-24T11:32:59.645933+00:00", "meta": {"OBJECT_NAME": "TIANMU-1 11", "OBJECT_ID": "2023-205A", "EPOCH": "2025-12-24T04:00:07.067808", "MEAN_MOTION": 15.24732249, "ECCENTRICITY": 0.000754, "INCLINATION": 97.3595, "RA_OF_ASC_NODE": 17.589, "ARG_OF_PERICENTER": 261.4774, "MEAN_ANOMALY": 98.5609, "EPHEMERIS_TYPE": 0, "CLASSIFICATION_TYPE": "U", "NORAD_CAT_ID": 58645, "ELEMENT_SET_NO": 999, "REV_AT_EPOCH": 11083, "BSTAR": 0.000261, "MEAN_MOTION_DOT": 6.395e-05, "MEAN_MOTION_DDOT": 0}, "tle": {"line1": "1 58645U 23205A   25358.16674847  .00006395  00000+0  26100-3 0  9990", "line2": "2 58645  97.3595  17.5890 0007540 261.4774  98.5609 15.24732249110834"}}, "geometry": {"type": "Point", "coordinates": [43.124981419760765, -73.12977686530596]}}, {"type": "Feature", "properties": {"norad_id": 58646, "name": "TIANMU-1 12", "group": "weather", "lat": 46.91863551759316, "lon": -154.35752235907034, "alt_km": 488.95010091090353, "timestamp": "2025-12-24T11:32:59.645972+00:00", "meta": {"OBJECT_NAME": "TIANMU-1 12", "OBJECT_ID": "2023-205B", "EPOCH": "2025-12-24T04:40:10.167168", "MEAN_MOTION": 15.24619488, "ECCENTRICITY": 0.0005948, "INCLINATION": 97.3583, "RA_OF_ASC_NODE": 17.418, "ARG_OF_PERICENTER": 239.2435, "MEAN_ANOMALY": 120.8217, "EPHEMERIS_TYPE": 0, "CLASSIFICATION_TYPE": "U", "NORAD_CAT_ID": 58646, "ELEMENT_SET_NO": 999, "REV_AT_EPOCH": 11082, "BSTAR": 0.00028175, "MEAN_MOTION_DOT": 6.884e-05, "MEAN_MOTION_DDOT": 0}, "tle": {"line1": "1 58646U 23205B   25358.19456212  .00006884  00000+0  28175-3 0  9995", "line2": "2 58646  97.3583  17.4180 0005948 239.2435 120.8217 15.24619488110822"}}, "geometry": {"type": "Point", "coordinates": [-154.35752235907034, 46.91863551759316]}}, {"type": "Feature", "properties": {"norad_id": 58647, "name": "TIANMU-1 13", "group": "weather", "lat": -49.08370673003271, "lon": 26.483606157212083, "alt_km": 499.06861535547614, "timestamp": "2025-12-24T11:32:59.645997+00:00", "meta": {"OBJECT_NAME": "TIANMU-1 13", "OBJECT_ID": "2023-205C", "EPOCH": "2025-12-24T05:28:00.705216", "MEAN_MOTION": 15.24663095, "ECCENTRICITY": 0.0006569, "INCLINATION": 97.3611, "RA_OF_ASC_NODE": 17.6565, "ARG_OF_PERICENTER": 216.779, "MEAN_ANOMALY": 143.2998, "EPHEMERIS_TYPE": 0, "CLASSIFICATION_TYPE": "U", "NORAD_CAT_ID": 58647, "ELEMENT_SET_NO": 999, "REV_AT_EPOCH": 11082, "BSTAR": 0.00028208, "MEAN_MOTION_DOT": 6.902e-05, "MEAN_MOTION_DDOT": 0}, "tle": {"line1": "1 58647U 23205C   25358.22778594  .00006902  00000+0  28208-3 0  9998", "line2": "2 58647  97.3611  17.6565 0006569 216.7790 143.2998 15.24663095110826"}}, "geometry": {"type": "Point", "coordinates": [26.483606157212083, -49.08370673003271]}}, {"type": "Feature", "properties": {"norad_id": 58648, "name": "TIANMU-1 14", "group": "weather", "lat": 40.21797321931396, "lon": 10.973339546605231, "alt_km": 493.76721874536815, "timestamp": "2025-12-24T11:32:59.646015+00:00", "meta": {"OBJECT_NAME": "TIANMU-1 14", "OBJECT_ID": "2023-205D", "EPOCH": "2025-12-24T05:04:17.406048", "MEAN_MOTION": 15.24645791, "ECCENTRICITY": 0.0007272, "INCLINATION": 97.3544, "RA_OF_ASC_NODE": 16.9785, "ARG_OF_PERICENTER": 223.0215, "MEAN_ANOMALY": 137.0455, "EPHEMERIS_TYPE": 0, "CLASSIFICATION_TYPE": "U", "NORAD_CAT_ID": 58648, "ELEMENT_SET_NO": 999, "REV_AT_EPOCH": 11082, "BSTAR": 0.00028594, "MEAN_MOTION_DOT": 6.995e-05, "MEAN_MOTION_DDOT": 0}, "tle": {"line1": "1 58648U 23205D   25358.21131257  .00006995  00000+0  28594-3 0  9997", "line2": "2 58648  97.3544  16.9785 0007272 223.0215 137.0455 15.24645791110825"}}, "geometry": {"type": "Point", "coordinates": [10.973339546605231, 40.21797321931396]}}, {"type": "Feature", "properties": {"norad_id": 58660, "name": "TIANMU-1 19", "group": "weather", "lat": 75.94875552545058, "lon": 78.02534144299807, "alt_km": 476.29948092199265, "timestamp": "2025-12-24T11:32:59.646034+00:00", "meta": {"OBJECT_NAME": "TIANMU-1 19", "OBJECT_ID": "2023-208A", "EPOCH": "2025-12-24T04:55:22.005120", "MEAN_MOTION": 15.28051818, "ECCENTRICITY": 0.0004718, "INCLINATION": 97.4391, "RA_OF_ASC_NODE": 109.221, "ARG_OF_PERICENTER": 203.9787, "MEAN_ANOMALY": 156.1233, "EPHEMERIS_TYPE": 0, "CLASSIFICATION_TYPE": "U", "NORAD_CAT_ID": 58660, "ELEMENT_SET_NO": 999, "REV_AT_EPOCH": 11057, "BSTAR": 0.00038068, "MEAN_MOTION_DOT": 0.00010347, "MEAN_MOTION_DDOT": 0}, "tle": {"line1": "1 58660U 23208A   25358.20511580  .00010347  00000+0  38068-3 0  9997", "line2": "2 58660  97.4391 109.2210 0004718 203.9787 156.1233 15.28051818110575"}}, "geometry": {"type": "Point", "coordinates": [78.02534144299807, 75.94875552545058]}}, {"type": "Feature", "properties": {"norad_id": 58661, "name": "TIANMU-1 20", "group": "weather", "lat": -22.4867343717472, "lon": -73.14215371972647, "alt_km": 479.06048468589415, "timestamp": "2025-12-24T11:32:59.646054+00:00", "meta": {"OBJECT_NAME": "TIANMU-1 20", "OBJECT_ID": "2023-208B", "EPOCH": "2025-12-24T04:23:05.413920", "MEAN_MOTION": 15.29242003, "ECCENTRICITY": 0.0006776, "INCLINATION": 97.4329, "RA_OF_ASC_NODE": 109.6574, "ARG_OF_PERICENTER": 218.4339, "MEAN_ANOMALY": 141.6419, "EPHEMERIS_TYPE": 0, "CLASSIFICATION_TYPE": "U", "NORAD_CAT_ID": 58661, "ELEMENT_SET_NO": 999, "REV_AT_EPOCH": 11064, "BSTAR": 0.00036331, "MEAN_MOTION_DOT": 0.00010242, "MEAN_MOTION_DDOT": 0}, "tle": {"line1": "1 58661U 23208B   25358.18270155  .00010242  00000+0  36331-3 0  9990", "line2": "2 58661  97.4329 109.6574 0006776 218.4339 141.6419 15.29242003110646"}}, "geometry": {"type": "Point", "coordinates": [-73.14215371972647, -22.4867343717472]}}]}